STARLINK-5599           
1 55766U 23028AB  26068.82788866 -.00001630  00000+0 -12890-3 0  9993
2 55766  69.9999 224.1123 0003060 269.3112  90.7696 14.98323956166550
HAWK-8C                 
1 59449U 24066H   26068.47383543  .00002400  00000+0  21518-3 0  9993
2 59449  45.6068  72.8656 0003935 260.2975  99.7462 14.98770227104860
